{
   "features" : [
      {
         "geometry" : {
            "coordinates" : [
               -0.1033,
               51.5129
            ],
            "type" : "Point"
         },
         "properties" : {
            "company" : "The Society of Apothecaries",
            "name" : "Apothecaries' Hall",
            "slug" : "apothecaries"
         },
         "type" : "Feature"
      },
      {
         "geometry" : {
            "coordinates" : [
               -0.0896,
               51.5172
            ],
            "type" : "Point"
         },
         "properties" : {
            "company" : "The Armourers and Brasiers' Company",
            "name" : "Armourers' Hall",
            "slug" : "armourers"
         },
         "type" : "Feature"
      },
      {
         "geometry" : {
            "coordinates" : [
               -0.0815,
               51.5095
            ],
            "type" : "Point"
         },
         "properties" : {
            "company" : "The Bakers' Company",
            "name" : "Bakers' Hall",
            "slug" : "bakers"
         },
         "type" : "Feature"
      },
      {
         "geometry" : {
            "coordinates" : [
               -0.0953,
               51.5177
            ],
            "type" : "Point"
         },
         "properties" : {
            "company" : "The Barbers' Company",
            "name" : "Barber-Surgeons' Hall",
            "slug" : "barber-surgeons"
         },
         "type" : "Feature"
      },
      {
         "geometry" : {
            "coordinates" : [
               -0.0927,
               51.5172
            ],
            "type" : "Point"
         },
         "properties" : {
            "company" : "The Brewers' Company",
            "name" : "Brewers' Hall",
            "slug" : "brewers"
         },
         "type" : "Feature"
      },
      {
         "geometry" : {
            "coordinates" : [
               -0.0992,
               51.5182
            ],
            "type" : "Point"
         },
         "properties" : {
            "company" : "The Butchers' Company",
            "name" : "Butchers' Hall",
            "slug" : "butchers"
         },
         "type" : "Feature"
      },
      {
         "geometry" : {
            "coordinates" : [
               -0.086,
               51.5168
            ],
            "type" : "Point"
         },
         "properties" : {
            "company" : "The Carpenters' Company",
            "name" : "Carpenters' Hall",
            "slug" : "carpenters"
         },
         "type" : "Feature"
      },
      {
         "geometry" : {
            "coordinates" : [
               -0.0885,
               51.5164
            ],
            "type" : "Point"
         },
         "properties" : {
            "company" : "The Institute of Chartered Accountants in England and Wales",
            "name" : "Chartered Accountants' Hall",
            "slug" : "chartered-accountants"
         },
         "type" : "Feature"
      },
      {
         "geometry" : {
            "coordinates" : [
               -0.081,
               51.5114
            ],
            "type" : "Point"
         },
         "properties" : {
            "company" : "The Clothworkers' Company",
            "name" : "Clothworkers' Hall",
            "slug" : "clothworkers"
         },
         "type" : "Feature"
      },
      {
         "geometry" : {
            "coordinates" : [
               -0.0792,
               51.5168
            ],
            "type" : "Point"
         },
         "properties" : {
            "company" : "The Coopers' Company",
            "name" : "Coopers' Hall",
            "slug" : "coopers"
         },
         "type" : "Feature"
      },
      {
         "geometry" : {
            "coordinates" : [
               -0.1009,
               51.5155
            ],
            "type" : "Point"
         },
         "properties" : {
            "company" : "The Cutlers' Company",
            "name" : "Cutlers' Hall",
            "slug" : "cutlers"
         },
         "type" : "Feature"
      },
      {
         "geometry" : {
            "coordinates" : [
               -0.0862,
               51.5163
            ],
            "type" : "Point"
         },
         "properties" : {
            "company" : "The Drapers' Company",
            "name" : "Drapers' Hall",
            "slug" : "drapers"
         },
         "type" : "Feature"
      },
      {
         "geometry" : {
            "coordinates" : [
               -0.0912,
               51.511
            ],
            "type" : "Point"
         },
         "properties" : {
            "company" : "The Dyers' Company",
            "name" : "Dyers' Hall",
            "slug" : "dyers"
         },
         "type" : "Feature"
      },
      {
         "geometry" : {
            "coordinates" : [
               -0.098,
               51.5196
            ],
            "type" : "Point"
         },
         "properties" : {
            "company" : "The Farmers' Company and The Fletchers' Company",
            "name" : "Farmers & Fletchers' Hall",
            "slug" : "farmers-and-fletchers"
         },
         "type" : "Feature"
      },
      {
         "geometry" : {
            "coordinates" : [
               -0.0877,
               51.5094
            ],
            "type" : "Point"
         },
         "properties" : {
            "company" : "The Fishmongers' Company",
            "name" : "Fishmongers' Hall",
            "slug" : "fishmongers"
         },
         "type" : "Feature"
      },
      {
         "geometry" : {
            "coordinates" : [
               -0.0989,
               51.5193
            ],
            "type" : "Point"
         },
         "properties" : {
            "company" : "The Founders' Company",
            "name" : "Founders' Hall",
            "slug" : "founders"
         },
         "type" : "Feature"
      },
      {
         "geometry" : {
            "coordinates" : [
               -0.0857,
               51.5157
            ],
            "type" : "Point"
         },
         "properties" : {
            "company" : "The Furniture Makers' Company",
            "name" : "Furniture Makers' Hall",
            "slug" : "furniture-makers"
         },
         "type" : "Feature"
      },
      {
         "geometry" : {
            "coordinates" : [
               -0.0906,
               51.517
            ],
            "type" : "Point"
         },
         "properties" : {
            "company" : "The Girdlers' Company",
            "name" : "Girdlers' Hall",
            "slug" : "girdlers"
         },
         "type" : "Feature"
      },
      {
         "geometry" : {
            "coordinates" : [
               -0.0888,
               51.5066
            ],
            "type" : "Point"
         },
         "properties" : {
            "company" : "The Glaziers' Company",
            "name" : "Glaziers' Hall",
            "slug" : "glaziers"
         },
         "type" : "Feature"
      },
      {
         "geometry" : {
            "coordinates" : [
               -0.0959,
               51.5156
            ],
            "type" : "Point"
         },
         "properties" : {
            "company" : "The Goldsmiths' Company",
            "name" : "Goldsmiths' Hall",
            "slug" : "goldsmiths"
         },
         "type" : "Feature"
      },
      {
         "geometry" : {
            "coordinates" : [
               -0.0902,
               51.5142
            ],
            "type" : "Point"
         },
         "properties" : {
            "company" : "The Grocers' Company",
            "name" : "Grocers' Hall",
            "slug" : "grocers"
         },
         "type" : "Feature"
      },
      {
         "geometry" : {
            "coordinates" : [
               -0.092,
               51.5158
            ],
            "type" : "Point"
         },
         "properties" : {
            "company" : "City of London Corporation",
            "name" : "Guildhall",
            "slug" : "guildhall"
         },
         "type" : "Feature"
      },
      {
         "geometry" : {
            "coordinates" : [
               -0.0681,
               51.5148
            ],
            "type" : "Point"
         },
         "properties" : {
            "company" : "The Gunmakers' Company",
            "name" : "Gunmakers' Hall",
            "slug" : "gunmakers"
         },
         "type" : "Feature"
      },
      {
         "geometry" : {
            "coordinates" : [
               -0.102,
               51.518
            ],
            "type" : "Point"
         },
         "properties" : {
            "company" : "The Haberdashers' Company",
            "name" : "Haberdashers' Hall",
            "slug" : "haberdashers"
         },
         "type" : "Feature"
      },
      {
         "geometry" : {
            "coordinates" : [
               -0.1124,
               51.5106
            ],
            "type" : "Point"
         },
         "properties" : {
            "company" : "The Honourable Company of Master Mariners",
            "name" : "HQS Wellington",
            "slug" : "hqs-wellington"
         },
         "type" : "Feature"
      },
      {
         "geometry" : {
            "coordinates" : [
               -0.0985,
               51.5191
            ],
            "type" : "Point"
         },
         "properties" : {
            "company" : "The Information Technologists' Company",
            "name" : "Information Technologists' Hall",
            "slug" : "information-technologists"
         },
         "type" : "Feature"
      },
      {
         "geometry" : {
            "coordinates" : [
               -0.0916,
               51.5109
            ],
            "type" : "Point"
         },
         "properties" : {
            "company" : "The Innholders' Company",
            "name" : "Innholders' Hall",
            "slug" : "innholders"
         },
         "type" : "Feature"
      },
      {
         "geometry" : {
            "coordinates" : [
               -0.0961,
               51.5182
            ],
            "type" : "Point"
         },
         "properties" : {
            "company" : "The Ironmongers' Company",
            "name" : "Ironmongers' Hall",
            "slug" : "ironmongers"
         },
         "type" : "Feature"
      },
      {
         "geometry" : {
            "coordinates" : [
               -0.0813,
               51.5145
            ],
            "type" : "Point"
         },
         "properties" : {
            "company" : "The Leathersellers' Company",
            "name" : "Leathersellers' Hall",
            "slug" : "leathersellers"
         },
         "type" : "Feature"
      },
      {
         "geometry" : {
            "coordinates" : [
               -0.092,
               51.5139
            ],
            "type" : "Point"
         },
         "properties" : {
            "company" : "The Mercers' Company",
            "name" : "Mercers' Hall",
            "slug" : "mercers"
         },
         "type" : "Feature"
      },
      {
         "geometry" : {
            "coordinates" : [
               -0.0853,
               51.5141
            ],
            "type" : "Point"
         },
         "properties" : {
            "company" : "The Merchant Taylors' Company",
            "name" : "Merchant Taylors' Hall",
            "slug" : "merchant-taylors"
         },
         "type" : "Feature"
      },
      {
         "geometry" : {
            "coordinates" : [
               -0.0949,
               51.5119
            ],
            "type" : "Point"
         },
         "properties" : {
            "company" : "The Painter-Stainers' Company",
            "name" : "Painters' Hall",
            "slug" : "painter-stainers"
         },
         "type" : "Feature"
      },
      {
         "geometry" : {
            "coordinates" : [
               -0.0952,
               51.5167
            ],
            "type" : "Point"
         },
         "properties" : {
            "company" : "The Pewterers' Company",
            "name" : "Pewterers' Hall",
            "slug" : "pewterers"
         },
         "type" : "Feature"
      },
      {
         "geometry" : {
            "coordinates" : [
               -0.0958,
               51.5173
            ],
            "type" : "Point"
         },
         "properties" : {
            "company" : "The Plaisterers' Company",
            "name" : "Plaisterers' Hall",
            "slug" : "plaisterers"
         },
         "type" : "Feature"
      },
      {
         "geometry" : {
            "coordinates" : [
               -0.0955,
               51.5149
            ],
            "type" : "Point"
         },
         "properties" : {
            "company" : "The Saddlers' Company",
            "name" : "Saddlers' Hall",
            "slug" : "saddlers"
         },
         "type" : "Feature"
      },
      {
         "geometry" : {
            "coordinates" : [
               -0.092,
               51.5177
            ],
            "type" : "Point"
         },
         "properties" : {
            "company" : "The Salters' Company",
            "name" : "Salters' Hall",
            "slug" : "salters"
         },
         "type" : "Feature"
      },
      {
         "geometry" : {
            "coordinates" : [
               -0.0911,
               51.5111
            ],
            "type" : "Point"
         },
         "properties" : {
            "company" : "The Skinners' Company",
            "name" : "Skinners' Hall",
            "slug" : "skinners"
         },
         "type" : "Feature"
      },
      {
         "geometry" : {
            "coordinates" : [
               -0.1014,
               51.5143
            ],
            "type" : "Point"
         },
         "properties" : {
            "company" : "The Stationers' Company",
            "name" : "Stationers' Hall",
            "slug" : "stationers"
         },
         "type" : "Feature"
      },
      {
         "geometry" : {
            "coordinates" : [
               -0.091,
               51.5113
            ],
            "type" : "Point"
         },
         "properties" : {
            "company" : "The Tallow Chandlers' Company",
            "name" : "Tallow Chandlers' Hall",
            "slug" : "tallow-chandlers"
         },
         "type" : "Feature"
      },
      {
         "geometry" : {
            "coordinates" : [
               -0.0936,
               51.5108
            ],
            "type" : "Point"
         },
         "properties" : {
            "company" : "The Vintners' Company",
            "name" : "Vintners' Hall",
            "slug" : "vintners"
         },
         "type" : "Feature"
      },
      {
         "geometry" : {
            "coordinates" : [
               -0.0839,
               51.5095
            ],
            "type" : "Point"
         },
         "properties" : {
            "company" : "The Company of Watermen and Lightermen",
            "name" : "Watermen's Hall",
            "slug" : "watermen"
         },
         "type" : "Feature"
      },
      {
         "geometry" : {
            "coordinates" : [
               -0.0954,
               51.5158
            ],
            "type" : "Point"
         },
         "properties" : {
            "company" : "The Wax Chandlers' Company",
            "name" : "Wax Chandlers' Hall",
            "slug" : "wax-chandlers"
         },
         "type" : "Feature"
      }
   ],
   "type" : "FeatureCollection"
}
